{
  "type": "FeatureCollection",
  "features": [
    {
      "type": "Feature",
      "properties": {
        "norad_id": 37533,
        "name": "COSMOS 2251 DEB",
        "group": "cosmos-2251-debris",
        "lat": 69.05145212938258,
        "lon": -135.2099508992444,
        "alt_km": 947.800985914062,
        "timestamp": "2025-12-21T09:37:23.052715+00:00",
        "meta_object_name": "COSMOS 2251 DEB",
        "meta_object_id": "1993-036BNN",
        "meta_epoch": "2025-12-17T06:38:38.162976",
        "meta_mean_motion": 14.12190824,
        "meta_eccentricity": 0.0157786,
        "meta_inclination": 74.0692,
        "meta_ra_of_asc_node": 183.8069,
        "meta_arg_of_pericenter": 239.4795,
        "meta_mean_anomaly": 119.0691,
        "meta_ephemeris_type": 0,
        "meta_classification_type": "U",
        "meta_norad_cat_id": 37533,
        "meta_element_set_no": 999,
        "meta_rev_at_epoch": 62985,
        "meta_bstar": 0.0010470743,
        "meta_mean_motion_dot": 2.138e-05,
        "meta_mean_motion_ddot": 0,
        "tle_line1": "1 37533U 93036BNN 25351.27683059  .00002138  00000+0  10471-2 0  9996",
        "tle_line2": "2 37533  74.0692 183.8069 0157786 239.4795 119.0691 14.12190824629858"
      },
      "geometry": {
        "type": "Point",
        "coordinates": [
          -135.2099508992444,
          69.05145212938258
        ]
      }
    },
    {
      "type": "Feature",
      "properties": {
        "norad_id": 37535,
        "name": "COSMOS 2251 DEB",
        "group": "cosmos-2251-debris",
        "lat": 1.0848847868864318,
        "lon": 57.31295362199825,
        "alt_km": 719.349016508736,
        "timestamp": "2025-12-21T09:37:23.052725+00:00",
        "meta_object_name": "COSMOS 2251 DEB",
        "meta_object_id": "1993-036BNQ",
        "meta_epoch": "2025-12-19T15:30:43.235136",
        "meta_mean_motion": 14.58499467,
        "meta_eccentricity": 0.0027409,
        "meta_inclination": 74.024,
        "meta_ra_of_asc_node": 60.3433,
        "meta_arg_of_pericenter": 198.557,
        "meta_mean_anomaly": 313.5255,
        "meta_ephemeris_type": 0,
        "meta_classification_type": "U",
        "meta_norad_cat_id": 37535,
        "meta_element_set_no": 999,
        "meta_rev_at_epoch": 85425,
        "meta_bstar": 0.0004624,
        "meta_mean_motion_dot": 2.129e-05,
        "meta_mean_motion_ddot": 0,
        "tle_line1": "1 37535U 93036BNQ 25353.64633374  .00002129  00000+0  46240-3 0  9990",
        "tle_line2": "2 37535  74.0240  60.3433 0027409 198.5570 313.5255 14.58499467854253"
      },
      "geometry": {
        "type": "Point",
        "coordinates": [
          57.31295362199825,
          1.0848847868864318
        ]
      }
    },
    {
      "type": "Feature",
      "properties": {
        "norad_id": 37537,
        "name": "COSMOS 2251 DEB",
        "group": "cosmos-2251-debris",
        "lat": -69.99992332162014,
        "lon": 121.13739326804455,
        "alt_km": 796.5031840480096,
        "timestamp": "2025-12-21T09:37:23.052735+00:00",
        "meta_object_name": "COSMOS 2251 DEB",
        "meta_object_id": "1993-036BNS",
        "meta_epoch": "2025-12-20T10:42:49.127616",
        "meta_mean_motion": 14.37501224,
        "meta_eccentricity": 0.00506405,
        "meta_inclination": 74.0118,
        "meta_ra_of_asc_node": 250.923,
        "meta_arg_of_pericenter": 29.0994,
        "meta_mean_anomaly": 331.2965,
        "meta_ephemeris_type": 0,
        "meta_classification_type": "U",
        "meta_norad_cat_id": 37537,
        "meta_element_set_no": 999,
        "meta_rev_at_epoch": 85144,
        "meta_bstar": 0.00015589404,
        "meta_mean_motion_dot": 4.47e-06,
        "meta_mean_motion_ddot": 0,
        "tle_line1": "1 37537U 93036BNS 25354.44640194  .00000447  00000+0  15589-3 0  9992",
        "tle_line2": "2 37537  74.0118 250.9230 0050640  29.0994 331.2965 14.37501224851447"
      },
      "geometry": {
        "type": "Point",
        "coordinates": [
          121.13739326804455,
          -69.99992332162014
        ]
      }
    },
    {
      "type": "Feature",
      "properties": {
        "norad_id": 37546,
        "name": "COSMOS 2251 DEB",
        "group": "cosmos-2251-debris",
        "lat": -58.236423596688454,
        "lon": -71.52206569315229,
        "alt_km": 637.0516527528189,
        "timestamp": "2025-12-21T09:37:23.052745+00:00",
        "meta_object_name": "COSMOS 2251 DEB",
        "meta_object_id": "1993-036BPB",
        "meta_epoch": "2025-12-19T06:16:07.383648",
        "meta_mean_motion": 14.80755456,
        "meta_eccentricity": 0.0005308,
        "meta_inclination": 74.0228,
        "meta_ra_of_asc_node": 85.1349,
        "meta_arg_of_pericenter": 85.4439,
        "meta_mean_anomaly": 274.7344,
        "meta_ephemeris_type": 0,
        "meta_classification_type": "U",
        "meta_norad_cat_id": 37546,
        "meta_element_set_no": 999,
        "meta_rev_at_epoch": 65984,
        "meta_bstar": 0.001677,
        "meta_mean_motion_dot": 0.00012912,
        "meta_mean_motion_ddot": 0,
        "tle_line1": "1 37546U 93036BPB 25353.26119657  .00012912  00000+0  16770-2 0  9998",
        "tle_line2": "2 37546  74.0228  85.1349 0005308  85.4439 274.7344 14.80755456659847"
      },
      "geometry": {
        "type": "Point",
        "coordinates": [
          -71.52206569315229,
          -58.236423596688454
        ]
      }
    },
    {
      "type": "Feature",
      "properties": {
        "norad_id": 37959,
        "name": "COSMOS 2251 DEB",
        "group": "cosmos-2251-debris",
        "lat": 73.48337549719552,
        "lon": 145.19507628257904,
        "alt_km": 689.4418834440867,
        "timestamp": "2025-12-21T09:37:23.052756+00:00",
        "meta_object_name": "COSMOS 2251 DEB",
        "meta_object_id": "1993-036BPJ",
        "meta_epoch": "2025-12-20T20:49:55.034112",
        "meta_mean_motion": 14.58188952,
        "meta_eccentricity": 0.00573523,
        "meta_inclination": 74.0098,
        "meta_ra_of_asc_node": 41.4544,
        "meta_arg_of_pericenter": 182.5287,
        "meta_mean_anomaly": 355.6373,
        "meta_ephemeris_type": 0,
        "meta_classification_type": "U",
        "meta_norad_cat_id": 37959,
        "meta_element_set_no": 999,
        "meta_rev_at_epoch": 80245,
        "meta_bstar": 0.00037302555,
        "meta_mean_motion_dot": 1.73e-05,
        "meta_mean_motion_ddot": 0,
        "tle_line1": "1 37959U 93036BPJ 25354.86799808  .00001730  00000+0  37303-3 0  9997",
        "tle_line2": "2 37959  74.0098  41.4544 0057352 182.5287 355.6373 14.58188952802452"
      },
      "geometry": {
        "type": "Point",
        "coordinates": [
          145.19507628257904,
          73.48337549719552
        ]
      }
    },
    {
      "type": "Feature",
      "properties": {
        "norad_id": 37960,
        "name": "COSMOS 2251 DEB",
        "group": "cosmos-2251-debris",
        "lat": -6.595677931494092,
        "lon": -6.390832589365778,
        "alt_km": 690.0206023605579,
        "timestamp": "2025-12-21T09:37:23.052766+00:00",
        "meta_object_name": "COSMOS 2251 DEB",
        "meta_object_id": "1993-036BPK",
        "meta_epoch": "2025-12-16T19:35:27.740256",
        "meta_mean_motion": 14.07867991,
        "meta_eccentricity": 0.02485393,
        "meta_inclination": 74.059,
        "meta_ra_of_asc_node": 179.7478,
        "meta_arg_of_pericenter": 197.3915,
        "meta_mean_anomaly": 161.86,
        "meta_ephemeris_type": 0,
        "meta_classification_type": "U",
        "meta_norad_cat_id": 37960,
        "meta_element_set_no": 999,
        "meta_rev_at_epoch": 77463,
        "meta_bstar": 0.00064570376,
        "meta_mean_motion_dot": 1.428e-05,
        "meta_mean_motion_ddot": 0,
        "tle_line1": "1 37960U 93036BPK 25350.81629329  .00001428  00000+0  64570-3 0  9990",
        "tle_line2": "2 37960  74.0590 179.7478 0248539 197.3915 161.8600 14.07867991774632"
      },
      "geometry": {
        "type": "Point",
        "coordinates": [
          -6.390832589365778,
          -6.595677931494092
        ]
      }
    },
    {
      "type": "Feature",
      "properties": {
        "norad_id": 37961,
        "name": "COSMOS 2251 DEB",
        "group": "cosmos-2251-debris",
        "lat": 24.191771467563466,
        "lon": -66.74505526191749,
        "alt_km": 677.729929342122,
        "timestamp": "2025-12-21T09:37:23.052776+00:00",
        "meta_object_name": "COSMOS 2251 DEB",
        "meta_object_id": "1993-036BPL",
        "meta_epoch": "2025-12-13T03:18:27.462240",
        "meta_mean_motion": 14.57979799,
        "meta_eccentricity": 0.00406759,
        "meta_inclination": 74.0407,
        "meta_ra_of_asc_node": 136.3488,
        "meta_arg_of_pericenter": 216.8805,
        "meta_mean_anomaly": 142.9561,
        "meta_ephemeris_type": 0,
        "meta_classification_type": "U",
        "meta_norad_cat_id": 37961,
        "meta_element_set_no": 999,
        "meta_rev_at_epoch": 80071,
        "meta_bstar": 0.001729191,
        "meta_mean_motion_dot": 8.011e-05,
        "meta_mean_motion_ddot": 0,
        "tle_line1": "1 37961U 93036BPL 25347.13781785  .00008011  00000+0  17292-2 0  9990",
        "tle_line2": "2 37961  74.0407 136.3488 0040675 216.8805 142.9561 14.57979799800716"
      },
      "geometry": {
        "type": "Point",
        "coordinates": [
          -66.74505526191749,
          24.191771467563466
        ]
      }
    }
  ]
}